NORAD_CAT_ID,OBJECT_NAME,OBJECT_TYPE,EPOCH,MEAN_MOTION,ECCENTRICITY,INCLINATION,RA_OF_ASC_NODE,ARG_OF_PERICENTER,MEAN_ANOMALY,BSTAR,MEAN_MOTION_DOT,MEAN_MOTION_DDOT,TLE_LINE0,TLE_LINE1,TLE_LINE2,SEMIMAJOR_AXIS,PERIOD,APOGEE,PERIGEE,DECAYED
54808.0,STARLINK-5413,PAYLOAD,2024-01-10 01:47:28,15.08827835,0.0001607,53.2194,319.0066,100.3147,259.8026,0.00016892,2.401e-05,0.0,0 STARLINK-5413,1 54808U 22175BC  24010.07463631  .00002401  00000-0  16892-3 0  9995,2 54808  53.2194 319.0066 0001607 100.3147 259.8026 15.08827835 58974,6917.918,95.438,540.894,538.671,0.0
54808.0,STARLINK-5413,PAYLOAD,2024-01-11 03:13:39,15.08833408,0.0001214,53.2188,314.2554,107.6726,252.4399,-5.8603e-05,-1.22e-05,0.0,0 STARLINK-5413,1 54808U 22175BC  24011.13448305 -.00001220  00000-0 -58603-4 0  9991,2 54808  53.2188 314.2554 0001214 107.6726 252.4399 15.08833408 59137,6917.901,95.438,540.605,538.926,0.0
54808.0,STARLINK-5413,PAYLOAD,2024-01-11 06:24:25,15.08835216,0.0001124,53.2185,313.6597,103.484,256.6278,-6.6681e-05,-1.349e-05,0.0,0 STARLINK-5413,1 54808U 22175BC  24011.26696178 -.00001349  00000-0 -66681-4 0  9995,2 54808  53.2185 313.6597 0001124 103.4840 256.6278 15.08835216 61319,6917.895,95.438,540.538,538.982,0.0
54808.0,STARLINK-5413,PAYLOAD,2024-01-11 19:07:31,15.08827911,0.000115,53.2195,311.2815,98.349,261.7632,8.3831e-05,1.046e-05,0.0,0 STARLINK-5413,1 54808U 22175BC  24011.79688695  .00001046  00000-0  83831-4 0  9996,2 54808  53.2195 311.2815 0001150  98.3490 261.7632 15.08827911 61391,6917.917,95.438,540.578,538.987,0.0
54808.0,STARLINK-5413,PAYLOAD,2024-01-12 01:29:02,15.08849078,0.0001435,53.2192,310.0904,110.1161,249.9985,0.00012437,1.692e-05,0.0,0 STARLINK-5413,1 54808U 22175BC  24012.06183312  .00001692  00000-0  12437-3 0  9993,2 54808  53.2192 310.0904 0001435 110.1161 249.9985 15.08849078 59279,6917.853,95.437,540.71,538.725,0.0
54808.0,STARLINK-5413,PAYLOAD,2024-01-12 04:39:48,15.08850885,0.000133,53.219,309.4974,92.4769,267.6376,0.00018391,2.641e-05,0.0,0 STARLINK-5413,1 54808U 22175BC  24012.19431062  .00002641  00000-0  18391-3 0  9995,2 54808  53.2190 309.4974 0001330  92.4769 267.6376 15.08850885 61458,6917.847,95.437,540.632,538.792,0.0
54808.0,STARLINK-5413,PAYLOAD,2024-01-13 01:19:50,15.08837742,0.000118,53.2192,305.6326,72.6152,287.4969,0.00010139,1.326e-05,0.0,0 STARLINK-5413,1 54808U 22175BC  24013.05544365  .00001326  00000-0  10139-3 0  9993,2 54808  53.2192 305.6326 0001180  72.6152 287.4969 15.08837742 59427,6917.887,95.438,540.569,538.936,0.0
54808.0,STARLINK-5413,PAYLOAD,2024-01-13 04:30:36,15.08845662,0.0001121,53.2188,305.0363,75.7974,284.3143,0.00015362,2.158e-05,0.0,0 STARLINK-5413,1 54808U 22175BC  24013.18791746  .00002158  00000-0  15362-3 0  9991,2 54808  53.2188 305.0363 0001121  75.7974 284.3143 15.08845662 59440,6917.863,95.437,540.504,538.953,0.0
54808.0,STARLINK-5413,PAYLOAD,2024-01-14 02:46:00,15.0884508,0.0001467,53.2186,300.8744,57.5154,302.5979,3.648e-05,2.93e-06,0.0,0 STARLINK-5413,1 54808U 22175BC  24014.11528400  .00000293  00000-0  36480-4 0  9993,2 54808  53.2186 300.8744 0001467  57.5154 302.5979 15.08845080 59584,6917.865,95.437,540.745,538.715,0.0
54808.0,STARLINK-5413,PAYLOAD,2024-01-14 18:39:51,15.08842564,0.0001528,53.2182,297.9012,73.2658,286.8501,0.00015423,2.168e-05,0.0,0 STARLINK-5413,1 54808U 22175BC  24014.77768118  .00002168  00000-0  15423-3 0  9993,2 54808  53.2182 297.9012 0001528  73.2658 286.8501 15.08842564 61847,6917.873,95.437,540.795,538.681,0.0
54808.0,STARLINK-5413,PAYLOAD,2024-01-15 01:01:23,15.08856225,0.0001247,53.2168,296.7121,75.5077,284.6053,9.3216e-05,1.197e-05,0.0,0 STARLINK-5413,1 54808U 22175BC  24015.04263239  .00001197  00000-0  93216-4 0  9996,2 54808  53.2168 296.7121 0001247  75.5077 284.6053 15.08856225 59728,6917.831,95.437,540.558,538.833,0.0
54808.0,STARLINK-5413,PAYLOAD,2024-01-15 04:12:08,15.08865411,0.0001344,53.2176,296.1132,92.7697,267.3449,0.0002079,3.025e-05,0.0,0 STARLINK-5413,1 54808U 22175BC  24015.17510255  .00003025  00000-0  20790-3 0  9991,2 54808  53.2176 296.1132 0001344  92.7697 267.3449 15.08865411 59746,6917.803,95.436,540.597,538.738,0.0
54808.0,STARLINK-5413,PAYLOAD,2024-01-16 04:02:57,15.08844654,0.0001761,53.2178,291.6495,116.6819,243.4353,-1.7522e-05,-5.67e-06,0.0,0 STARLINK-5413,1 54808U 22175BC  24016.16871715 -.00000567  00000-0 -17522-4 0  9992,2 54808  53.2178 291.6495 0001761 116.6819 243.4353 15.08844654 59896,6917.866,95.437,540.949,538.513,0.0
54808.0,STARLINK-5413,PAYLOAD,2024-01-16 21:32:11,15.08845568,0.0001813,53.2174,288.3793,119.2145,240.9028,-8.9909e-05,-1.719e-05,0.0,0 STARLINK-5413,1 54808U 22175BC  24016.89735679 -.00001719  00000-0 -89909-4 0  9998,2 54808  53.2174 288.3793 0001813 119.2145 240.9028 15.08845568 62165,6917.863,95.437,540.983,538.474,0.0
54808.0,STARLINK-5413,PAYLOAD,2024-01-17 05:29:06,15.08856589,0.0001438,53.2172,286.8937,103.5936,256.5216,0.00011795,1.591e-05,0.0,0 STARLINK-5413,1 54808U 22175BC  24017.22854956  .00001591  00000-0  11795-3 0  9999,2 54808  53.2172 286.8937 0001438 103.5936 256.5216 15.08856589 60056,6917.83,95.437,540.689,538.7,0.0
54808.0,STARLINK-5413,PAYLOAD,2024-01-17 21:22:59,15.08828909,0.000162,53.2175,283.9188,109.3531,250.7636,-3.7677e-05,-8.87e-06,0.0,0 STARLINK-5413,1 54808U 22175BC  24017.89096684 -.00000887  00000-0 -37677-4 0  9995,2 54808  53.2175 283.9188 0001620 109.3531 250.7636 15.08828909 62311,6917.914,95.438,540.9,538.659,0.0
54808.0,STARLINK-5413,PAYLOAD,2024-01-18 03:44:32,15.08831827,0.0001766,53.2173,282.7283,114.1596,245.9581,-3.0695e-06,-3.37e-06,0.0,0 STARLINK-5413,1 54808U 22175BC  24018.15592614 -.00000337  00000-0 -30695-5 0  9993,2 54808  53.2173 282.7283 0001766 114.1596 245.9581 15.08831827 60190,6917.905,95.438,540.992,538.549,0.0
54808.0,STARLINK-5413,PAYLOAD,2024-01-18 21:13:46,15.08840435,0.0001627,53.2167,279.4585,109.4967,250.6201,2.6566e-05,1.35e-06,0.0,0 STARLINK-5413,1 54808U 22175BC  24018.88456397  .00000135  00000-0  26566-4 0  9995,2 54808  53.2167 279.4585 0001627 109.4967 250.6201 15.08840435 62465,6917.879,95.438,540.87,538.619,0.0
54808.0,STARLINK-5413,PAYLOAD,2024-01-19 00:24:32,15.08843698,0.0001615,53.2169,278.8634,107.9888,252.128,9.2269e-05,1.181e-05,0.0,0 STARLINK-5413,1 54808U 22175BC  24019.01704269  .00001181  00000-0  92269-4 0  9990,2 54808  53.2169 278.8634 0001615 107.9888 252.1280 15.08843698 60328,6917.869,95.437,540.851,538.617,0.0
54808.0,STARLINK-5413,PAYLOAD,2024-01-19 22:39:56,15.08839037,0.0001701,53.2177,274.7023,109.601,250.5166,0.00014894,2.083e-05,0.0,0 STARLINK-5413,1 54808U 22175BC  24019.94440669  .00002083  00000-0  14894-3 0  9992,2 54808  53.2177 274.7023 0001701 109.6010 250.5166 15.08839037 62628,6917.883,95.438,540.925,538.572,0.0
54808.0,STARLINK-5413,PAYLOAD,2024-01-20 01:50:42,15.08840816,0.0001721,53.2175,274.1075,110.8782,249.2395,0.00011794,1.589e-05,0.0,0 STARLINK-5413,1 54808U 22175BC  24020.07688573  .00001589  00000-0  11794-3 0  9992,2 54808  53.2175 274.1075 0001721 110.8782 249.2395 15.08840816 60487,6917.878,95.438,540.933,538.552,0.0
54808.0,STARLINK-5413,PAYLOAD,2024-01-20 22:30:44,15.08837785,0.0001782,53.2172,270.2438,114.8919,245.2258,-1.3287e-05,-5e-06,0.0,0 STARLINK-5413,1 54808U 22175BC  24020.93800937 -.00000500  00000-0 -13287-4 0  9991,2 54808  53.2172 270.2438 0001782 114.8919 245.2258 15.08837785 62776,6917.887,95.438,540.985,538.519,0.0
54808.0,STARLINK-5413,PAYLOAD,2024-01-21 01:41:30,15.08839728,0.0001634,53.2173,269.6494,96.0039,264.114,5.9394e-05,6.57e-06,0.0,0 STARLINK-5413,1 54808U 22175BC  24021.07048984  .00000657  00000-0  59394-4 0  9993,2 54808  53.2173 269.6494 0001634  96.0039 264.1140 15.08839728 60633,6917.881,95.438,540.877,538.616,0.0
54808.0,STARLINK-5413,PAYLOAD,2024-01-21 22:21:31,15.08840585,0.0001627,53.2173,265.7847,80.1294,279.9882,9.2748e-05,1.188e-05,0.0,0 STARLINK-5413,1 54808U 22175BC  24021.93161237  .00001188  00000-0  92748-4 0  9995,2 54808  53.2173 265.7847 0001627  80.1294 279.9882 15.08840585 62925,6917.879,95.438,540.869,538.618,0.0
54808.0,STARLINK-5413,PAYLOAD,2024-01-21 23:56:54,15.08842224,0.0001555,53.2166,265.4882,84.4807,275.6363,0.0001127,1.506e-05,0.0,0 STARLINK-5413,1 54808U 22175BC  24021.99785149  .00001506  00000-0  11270-3 0  9999,2 54808  53.2166 265.4882 0001555  84.4807 275.6363 15.08842224 62930,6917.874,95.437,540.814,538.663,0.0
54808.0,STARLINK-5413,PAYLOAD,2024-01-22 19:01:32,15.08837929,0.0001848,53.2161,261.9168,71.1142,289.005,6.4266e-05,7.35e-06,0.0,0 STARLINK-5413,1 54808U 22175BC  24022.79273752  .00000735  00000-0  64266-4 0  9997,2 54808  53.2161 261.9168 0001848  71.1142 289.0050 15.08837929 60894,6917.887,95.438,541.03,538.473,0.0
54808.0,STARLINK-5413,PAYLOAD,2024-01-22 22:12:18,15.08842606,0.0001329,53.2159,261.3224,102.3728,257.7413,5.8812e-05,6.48e-06,0.0,0 STARLINK-5413,1 54808U 22175BC  24022.92521231  .00000648  00000-0  58812-4 0  9993,2 54808  53.2159 261.3224 0001329 102.3728 257.7413 15.08842606 63075,6917.872,95.437,540.657,538.818,0.0
54808.0,STARLINK-5413,PAYLOAD,2024-01-23 22:03:04,15.08854315,0.0001382,53.2167,256.86,92.8772,267.2378,0.00011209,1.497e-05,0.0,0 STARLINK-5413,1 54808U 22175BC  24023.91880234  .00001497  00000-0  11209-3 0  9995,2 54808  53.2167 256.8600 0001382  92.8772 267.2378 15.08854315 63225,6917.837,95.437,540.658,538.746,0.0
54808.0,STARLINK-5413,PAYLOAD,2024-01-24 20:18:29,15.0884125,0.0001407,53.2162,252.6976,76.9703,283.1446,3.3207e-05,2.41e-06,0.0,0 STARLINK-5413,1 54808U 22175BC  24024.84617291  .00000241  00000-0  33207-4 0  9998,2 54808  53.2162 252.6976 0001407  76.9703 283.1446 15.08841250 61208,6917.877,95.437,540.715,538.768,0.0
54808.0,STARLINK-5413,PAYLOAD,2024-01-24 21:53:52,15.08838545,0.0001448,53.2161,252.4009,75.7802,284.335,-3.8606e-06,-3.49e-06,0.0,0 STARLINK-5413,1 54808U 22175BC  24024.91241427 -.00000349  00000-0 -38606-5 0  9990,2 54808  53.2161 252.4009 0001448  75.7802 284.3350 15.08838545 63374,6917.885,95.438,540.752,538.748,0.0
